[Satellite]
VERSION=1.1
NAME=FLOCK 3P-85
NICKNAME=FLOCK 3P-85
TLE1=1 41983U 17008AM  17186.28968157  .00001410  00000-0  63667-4 0  9998
TLE2=2 41983  97.4972 247.6548 0009961 129.4905 230.7214 15.22607158 21139
